NORAD_CAT_ID,OBJECT_NAME,OBJECT_TYPE,EPOCH,MEAN_MOTION,ECCENTRICITY,INCLINATION,RA_OF_ASC_NODE,ARG_OF_PERICENTER,MEAN_ANOMALY,BSTAR,MEAN_MOTION_DOT,MEAN_MOTION_DDOT,TLE_LINE0,TLE_LINE1,TLE_LINE2,SEMIMAJOR_AXIS,PERIOD,APOGEE,PERIGEE,DECAYED
53964.0,STARLINK-4633,PAYLOAD,2023-11-12 13:49:58,15.08844421,0.0001667,53.2172,71.6049,89.438,270.6803,0.00021013,3.058e-05,0.0,0 STARLINK-4633,1 53964U 22125A   23316.57636865  .00003058  00000-0  21013-3 0  9996,2 53964  53.2172  71.6049 0001667  89.4380 270.6803 15.08844421 61288,6917.867,95.437,540.885,538.579,0.0
53964.0,STARLINK-4633,PAYLOAD,2023-11-12 15:25:21,15.08848342,0.0001441,53.217,71.3091,86.9582,273.1575,0.00029787,4.457e-05,0.0,0 STARLINK-4633,1 53964U 22125A   23316.64260757  .00004457  00000-0  29787-3 0  9997,2 53964  53.2170  71.3091 0001441  86.9582 273.1575 15.08848342 61297,6917.855,95.437,540.717,538.723,0.0
53964.0,STARLINK-4633,PAYLOAD,2023-11-13 12:05:21,15.08853082,0.0001519,53.2173,67.4437,86.5926,273.524,0.00045666,6.99e-05,0.0,0 STARLINK-4633,1 53964U 22125A   23317.50372467  .00006990  00000-0  45666-3 0  9993,2 53964  53.2173  67.4437 0001519  86.5926 273.5240 15.08853082 61496,6917.84,95.437,540.756,538.655,0.0
53964.0,STARLINK-4633,PAYLOAD,2023-11-13 13:40:44,15.08852687,0.0001518,53.2172,67.1461,86.7289,273.3877,0.00043625,6.664e-05,0.0,0 STARLINK-4633,1 53964U 22125A   23317.56996434  .00006664  00000-0  43625-3 0  9996,2 53964  53.2172  67.1461 0001518  86.7289 273.3877 15.08852687 61430,6917.842,95.437,540.757,538.656,0.0
53964.0,STARLINK-4633,PAYLOAD,2023-11-14 00:48:26,15.08847859,0.0001441,53.217,65.0653,85.6786,274.4371,0.00021891,3.198e-05,0.0,0 STARLINK-4633,1 53964U 22125A   23318.03364378  .00003198  00000-0  21891-3 0  9995,2 53964  53.2170  65.0653 0001441  85.6786 274.4371 15.08847859 61574,6917.856,95.437,540.718,538.725,0.0
53964.0,STARLINK-4633,PAYLOAD,2023-11-14 11:56:09,15.08836519,0.000203,53.2182,62.9836,89.5495,270.573,-4.8938e-06,-3.66e-06,0.0,0 STARLINK-4633,1 53964U 22125A   23318.49733016 -.00000366  00000-0 -48938-5 0  9993,2 53964  53.2182  62.9836 0002030  89.5495 270.5730 15.08836519 61646,6917.891,95.438,541.16,538.352,0.0
53964.0,STARLINK-4633,PAYLOAD,2023-11-14 13:31:32,15.08835601,0.000156,53.2177,62.6864,90.6759,269.4412,-2.7715e-05,-7.29e-06,0.0,0 STARLINK-4633,1 53964U 22125A   23318.56356960 -.00000729  00000-0 -27715-4 0  9992,2 53964  53.2177  62.6864 0001560  90.6759 269.4412 15.08835601 61589,6917.894,95.438,540.838,538.68,0.0
53964.0,STARLINK-4633,PAYLOAD,2023-11-15 13:22:19,15.08845329,0.0001592,53.2173,58.2253,93.8731,266.2443,0.00059064,9.126e-05,0.0,0 STARLINK-4633,1 53964U 22125A   23319.55717166  .00009126  00000-0  59064-3 0  9990,2 53964  53.2173  58.2253 0001592  93.8731 266.2443 15.08845329 61732,6917.864,95.437,540.83,538.628,0.0
53964.0,STARLINK-4633,PAYLOAD,2023-11-16 06:51:34,15.08843412,0.0001583,53.2175,54.9545,92.0924,268.025,0.00030284,4.535e-05,0.0,0 STARLINK-4633,1 53964U 22125A   23320.28581344  .00004535  00000-0  30284-3 0  9991,2 53964  53.2175  54.9545 0001583  92.0924 268.0250 15.08843412 61913,6917.87,95.437,540.83,538.64,0.0
53964.0,STARLINK-4633,PAYLOAD,2023-11-16 16:23:53,15.0884012,0.0001685,53.2175,53.1695,83.392,276.7264,0.00018284,2.623e-05,0.0,0 STARLINK-4633,1 53964U 22125A   23320.68325473  .00002623  00000-0  18284-3 0  9996,2 53964  53.2175  53.1695 0001685  83.3920 276.7264 15.08840120 61905,6917.88,95.438,540.911,538.579,0.0
53964.0,STARLINK-4633,PAYLOAD,2023-11-16 22:45:25,15.0884001,0.0001774,53.2182,51.9792,87.2072,272.9123,0.00014194,1.972e-05,0.0,0 STARLINK-4633,1 53964U 22125A   23320.94821521  .00001972  00000-0  14194-3 0  9992,2 53964  53.2182  51.9792 0001774  87.2072 272.9123 15.08840010 62010,6917.88,95.438,540.973,538.518,0.0
53964.0,STARLINK-4633,PAYLOAD,2023-11-17 13:03:53,15.08845971,0.0001401,53.217,49.3059,90.5152,269.6,0.00013072,1.793e-05,0.0,0 STARLINK-4633,1 53964U 22125A   23321.54437076  .00001793  00000-0  13072-3 0  9992,2 53964  53.2170  49.3059 0001401  90.5152 269.6000 15.08845971 62037,6917.862,95.437,540.696,538.758,0.0
53964.0,STARLINK-4633,PAYLOAD,2023-11-17 22:36:12,15.08839562,0.0001334,53.2165,47.5223,88.7085,271.4059,5.1096e-05,5.25e-06,0.0,0 STARLINK-4633,1 53964U 22125A   23321.94181324  .00000525  00000-0  51096-4 0  9999,2 53964  53.2165  47.5223 0001334  88.7085 271.4059 15.08839562 62093,6917.882,95.438,540.67,538.824,0.0
53964.0,STARLINK-4633,PAYLOAD,2023-11-18 12:54:41,15.08840051,0.0001281,53.2175,44.8476,94.2567,265.8572,4.0492e-05,3.57e-06,0.0,0 STARLINK-4633,1 53964U 22125A   23322.53797490  .00000357  00000-0  40492-4 0  9993,2 53964  53.2175  44.8476 0001281  94.2567 265.8572 15.08840051 62252,6917.88,95.438,540.631,538.859,0.0
53964.0,STARLINK-4633,PAYLOAD,2023-11-18 22:26:59,15.08839006,0.0001309,53.2184,43.0626,93.0482,267.066,0.00010959,1.457e-05,0.0,0 STARLINK-4633,1 53964U 22125A   23322.93541516  .00001457  00000-0  10959-3 0  9999,2 53964  53.2184  43.0626 0001309  93.0482 267.0660 15.08839006 62243,6917.883,95.438,540.654,538.843,0.0
53964.0,STARLINK-4633,PAYLOAD,2023-11-19 12:45:28,15.08841355,0.0001378,53.2184,40.3868,98.0216,262.0933,5.8058e-05,6.36e-06,0.0,0 STARLINK-4633,1 53964U 22125A   23323.53157508  .00000636  00000-0  58058-4 0  9991,2 53964  53.2184  40.3868 0001378  98.0216 262.0933 15.08841355 62335,6917.876,95.437,540.695,538.788,0.0
53964.0,STARLINK-4633,PAYLOAD,2023-11-19 22:17:46,15.08845114,0.0001356,53.2197,38.6024,96.5391,263.5755,4.5297e-05,4.33e-06,0.0,0 STARLINK-4633,1 53964U 22125A   23323.92901511  .00000433  00000-0  45297-4 0  9991,2 53964  53.2197  38.6024 0001356  96.5391 263.5755 15.08845114 62397,6917.865,95.437,540.668,538.792,0.0
53964.0,STARLINK-4633,PAYLOAD,2023-11-19 23:53:10,15.08841218,0.0001344,53.2191,38.305,96.1098,264.0047,0.00011573,1.554e-05,0.0,0 STARLINK-4633,1 53964U 22125A   23323.99525677  .00001554  00000-0  11573-3 0  9997,2 53964  53.2191  38.3050 0001344  96.1098 264.0047 15.08841218 62474,6917.877,95.437,540.671,538.812,0.0
53964.0,STARLINK-4633,PAYLOAD,2023-11-20 12:36:14,15.08846201,0.0001363,53.2179,35.9256,92.4113,267.7036,0.00013614,1.88e-05,0.0,0 STARLINK-4633,1 53964U 22125A   23324.52517319  .00001880  00000-0  13614-3 0  9991,2 53964  53.2179  35.9256 0001363  92.4113 267.7036 15.08846201 62485,6917.861,95.437,540.669,538.784,0.0
53964.0,STARLINK-4633,PAYLOAD,2023-11-20 22:08:33,15.08842777,0.0001323,53.2173,34.1409,85.9473,274.167,8.1364e-05,1.007e-05,0.0,0 STARLINK-4633,1 53964U 22125A   23324.92261433  .00001007  00000-0  81364-4 0  9997,2 53964  53.2173  34.1409 0001323  85.9473 274.1670 15.08842777 62549,6917.872,95.437,540.652,538.822,0.0
53964.0,STARLINK-4633,PAYLOAD,2023-11-21 10:51:38,15.08844179,0.0001328,53.2171,31.7618,85.6463,274.4681,0.00013571,1.873e-05,0.0,0 STARLINK-4633,1 53964U 22125A   23325.45253374  .00001873  00000-0  13571-3 0  9996,2 53964  53.2171  31.7618 0001328  85.6463 274.4681 15.08844179 62692,6917.868,95.437,540.651,538.814,0.0
53964.0,STARLINK-4633,PAYLOAD,2023-11-22 10:42:25,15.08852677,0.0001405,53.2167,27.3014,86.3784,273.7368,0.00022268,3.259e-05,0.0,0 STARLINK-4633,1 53964U 22125A   23326.44612792  .00003259  00000-0  22268-3 0  9992,2 53964  53.2167  27.3014 0001405  86.3784 273.7368 15.08852677 62773,6917.842,95.437,540.679,538.735,0.0
53964.0,STARLINK-4633,PAYLOAD,2023-11-22 23:25:30,15.08846104,0.0001679,53.2175,24.9245,87.6668,272.4516,0.0001029,1.35e-05,0.0,0 STARLINK-4633,1 53964U 22125A   23326.97605033  .00001350  00000-0  10290-3 0  9992,2 53964  53.2175  24.9245 0001679  87.6668 272.4516 15.08846104 62925,6917.862,95.437,540.888,538.565,0.0
53964.0,STARLINK-4633,PAYLOAD,2023-11-23 10:33:13,15.08833864,0.0001469,53.2176,22.8412,109.8466,250.2684,-6.0162e-05,-1.245e-05,0.0,0 STARLINK-4633,1 53964U 22125A   23327.43973523 -.00001245  00000-0 -60162-4 0  9995,2 53964  53.2176  22.8412 0001469 109.8466 250.2684 15.08833864 62995,6917.899,95.438,540.78,538.748,0.0
53964.0,STARLINK-4633,PAYLOAD,2023-11-23 13:43:59,15.08839643,0.0001349,53.2173,22.2439,104.1703,255.9439,-8.8776e-06,-4.29e-06,0.0,0 STARLINK-4633,1 53964U 22125A   23327.57221400 -.00000429  00000-0 -88776-5 0  9995,2 53964  53.2173  22.2439 0001349 104.1703 255.9439 15.08839643 62940,6917.881,95.438,540.68,538.813,0.0
53964.0,STARLINK-4633,PAYLOAD,2023-11-24 13:34:47,15.08836573,0.0001652,53.2189,17.7797,116.4507,243.6655,-0.00010598,-1.974e-05,0.0,0 STARLINK-4633,1 53964U 22125A   23328.56582358 -.00001974  00000-0 -10598-3 0  9998,2 53964  53.2189  17.7797 0001652 116.4507 243.6655 15.08836573 63098,6917.891,95.438,540.899,538.613,0.0
53964.0,STARLINK-4633,PAYLOAD,2023-11-25 13:25:33,15.08853505,0.0001725,53.2186,13.3197,95.9005,264.2184,0.00044054,6.733e-05,0.0,0 STARLINK-4633,1 53964U 22125A   23329.55941638  .00006733  00000-0  44054-3 0  9998,2 53964  53.2186  13.3197 0001725  95.9005 264.2184 15.08853505 63243,6917.839,95.437,540.897,538.511,0.0
53964.0,STARLINK-4633,PAYLOAD,2023-11-26 10:05:34,15.08851287,0.0001743,53.2174,9.4615,93.678,266.4412,0.00019969,2.892e-05,0.0,0 STARLINK-4633,1 53964U 22125A   23330.42053383  .00002892  00000-0  19969-3 0  9996,2 53964  53.2174   9.4615 0001743  93.6780 266.4412 15.08851287 63441,6917.846,95.437,540.917,538.505,0.0
53964.0,STARLINK-4633,PAYLOAD,2023-11-26 22:48:40,15.08826357,0.0001669,53.2189,7.0725,125.7711,234.3437,-0.00027624,-4.68e-05,0.0,0 STARLINK-4633,1 53964U 22125A   23330.95046489 -.00004680  00000-0 -27624-3 0  9999,2 53964  53.2189   7.0725 0001669 125.7711 234.3437 15.08826357 63521,6917.922,95.438,540.942,538.632,0.0
53964.0,STARLINK-4633,PAYLOAD,2023-11-27 11:31:46,15.08819396,0.0001686,53.2171,4.6963,110.879,249.2383,-0.00034476,-5.768e-05,0.0,0 STARLINK-4633,1 53964U 22125A   23331.48039596 -.00005768  00000-0 -34476-3 0  9990,2 53964  53.2171   4.6963 0001686 110.8790 249.2383 15.08819396 63531,6917.943,95.439,540.975,538.642,0.0
